{
  "type": "FeatureCollection",
  "features": [
    {
      "type": "Feature",
      "properties": {
        "norad_id": 66609,
        "name": "STARLINK-36034",
        "group": "last-30-days",
        "lat": 30.574615423948956,
        "lon": -72.74185213741667,
        "alt_km": 410.5975474392744,
        "timestamp": "2025-12-20T14:38:00.687495+00:00",
        "meta_object_name": "STARLINK-36034",
        "meta_object_id": "2025-270X",
        "meta_epoch": "2025-12-18T20:19:48.622656",
        "meta_mean_motion": 15.50608281,
        "meta_eccentricity": 0.00016988,
        "meta_inclination": 42.9989,
        "meta_ra_of_asc_node": 156.9208,
        "meta_arg_of_pericenter": 264.7399,
        "meta_mean_anomaly": 95.3267,
        "meta_ephemeris_type": 0,
        "meta_classification_type": "U",
        "meta_norad_cat_id": 66609,
        "meta_element_set_no": 999,
        "meta_rev_at_epoch": 513,
        "meta_bstar": 0.00068333644,
        "meta_mean_motion_dot": 0.00039994,
        "meta_mean_motion_ddot": 0,
        "tle_line1": "1 66609U 25270X   25352.84709054  .00039994  00000+0  68334-3 0  9997",
        "tle_line2": "2 66609  42.9989 156.9208 0001698 264.7399  95.3267 15.50608281  5132"
      },
      "geometry": {
        "type": "Point",
        "coordinates": [
          -72.74185213741667,
          30.574615423948956
        ]
      }
    },
    {
      "type": "Feature",
      "properties": {
        "norad_id": 66610,
        "name": "STARLINK-35680",
        "group": "last-30-days",
        "lat": 42.34735463654482,
        "lon": -135.27900598233884,
        "alt_km": 438.8006956599602,
        "timestamp": "2025-12-20T14:38:00.687505+00:00",
        "meta_object_name": "STARLINK-35680",
        "meta_object_id": "2025-270Y",
        "meta_epoch": "2025-12-20T06:00:02.999808",
        "meta_mean_motion": 15.40638056,
        "meta_eccentricity": 0.00021763,
        "meta_inclination": 42.9997,
        "meta_ra_of_asc_node": 148.8057,
        "meta_arg_of_pericenter": 279.4382,
        "meta_mean_anomaly": 324.3506,
        "meta_ephemeris_type": 0,
        "meta_classification_type": "U",
        "meta_norad_cat_id": 66610,
        "meta_element_set_no": 999,
        "meta_rev_at_epoch": 571,
        "meta_bstar": 0.00095185387,
        "meta_mean_motion_dot": 0.00039583,
        "meta_mean_motion_ddot": 0,
        "tle_line1": "1 66610U 25270Y   25354.25003472  .00039583  00000+0  95185-3 0  9995",
        "tle_line2": "2 66610  42.9997 148.8057 0002176 279.4382 324.3506 15.40638056  5719"
      },
      "geometry": {
        "type": "Point",
        "coordinates": [
          -135.27900598233884,
          42.34735463654482
        ]
      }
    },
    {
      "type": "Feature",
      "properties": {
        "norad_id": 66611,
        "name": "STARLINK-35583",
        "group": "last-30-days",
        "lat": 41.05119790568139,
        "lon": -102.48380726140519,
        "alt_km": 435.4137478346538,
        "timestamp": "2025-12-20T14:38:00.687515+00:00",
        "meta_object_name": "STARLINK-35583",
        "meta_object_id": "2025-270Z",
        "meta_epoch": "2025-12-20T06:00:02.999808",
        "meta_mean_motion": 15.43893924,
        "meta_eccentricity": 0.00024584,
        "meta_inclination": 42.9992,
        "meta_ra_of_asc_node": 148.7552,
        "meta_arg_of_pericenter": 267.5842,
        "meta_mean_anomaly": 357.5899,
        "meta_ephemeris_type": 0,
        "meta_classification_type": "U",
        "meta_norad_cat_id": 66611,
        "meta_element_set_no": 999,
        "meta_rev_at_epoch": 571,
        "meta_bstar": -0.056672924,
        "meta_mean_motion_dot": -0.02350299,
        "meta_mean_motion_ddot": 0,
        "tle_line1": "1 66611U 25270Z   25354.25003472 -.02350299  00000+0 -56673-1 0  9997",
        "tle_line2": "2 66611  42.9992 148.7552 0002458 267.5842 357.5899 15.43893924  5719"
      },
      "geometry": {
        "type": "Point",
        "coordinates": [
          -102.48380726140519,
          41.05119790568139
        ]
      }
    },
    {
      "type": "Feature",
      "properties": {
        "norad_id": 66612,
        "name": "STARLINK-36039",
        "group": "last-30-days",
        "lat": -24.726810078999517,
        "lon": -3.110605551535724,
        "alt_km": 445.4608717854535,
        "timestamp": "2025-12-20T14:38:00.687525+00:00",
        "meta_object_name": "STARLINK-36039",
        "meta_object_id": "2025-270AA",
        "meta_epoch": "2025-12-19T11:14:40.026048",
        "meta_mean_motion": 15.40749078,
        "meta_eccentricity": 0.0001559,
        "meta_inclination": 42.9988,
        "meta_ra_of_asc_node": 153.8506,
        "meta_arg_of_pericenter": 277.1774,
        "meta_mean_anomaly": 82.8905,
        "meta_ephemeris_type": 0,
        "meta_classification_type": "U",
        "meta_norad_cat_id": 66612,
        "meta_element_set_no": 999,
        "meta_rev_at_epoch": 538,
        "meta_bstar": 0.0012709,
        "meta_mean_motion_dot": 0.00053244,
        "meta_mean_motion_ddot": 0,
        "tle_line1": "1 66612U 25270AA  25353.46851882  .00053244  00000+0  12709-2 0  9995",
        "tle_line2": "2 66612  42.9988 153.8506 0001559 277.1774  82.8905 15.40749078  5389"
      },
      "geometry": {
        "type": "Point",
        "coordinates": [
          -3.110605551535724,
          -24.726810078999517
        ]
      }
    },
    {
      "type": "Feature",
      "properties": {
        "norad_id": 66613,
        "name": "STARLINK-36037",
        "group": "last-30-days",
        "lat": -37.2277646819842,
        "lon": 21.839490992545247,
        "alt_km": 446.0769508083504,
        "timestamp": "2025-12-20T14:38:00.687536+00:00",
        "meta_object_name": "STARLINK-36037",
        "meta_object_id": "2025-270AB",
        "meta_epoch": "2025-12-19T11:08:12.783840",
        "meta_mean_motion": 15.40728789,
        "meta_eccentricity": 0.0001195,
        "meta_inclination": 42.9985,
        "meta_ra_of_asc_node": 153.8159,
        "meta_arg_of_pericenter": 252.8559,
        "meta_mean_anomaly": 107.2167,
        "meta_ephemeris_type": 0,
        "meta_classification_type": "U",
        "meta_norad_cat_id": 66613,
        "meta_element_set_no": 999,
        "meta_rev_at_epoch": 538,
        "meta_bstar": 0.00080999,
        "meta_mean_motion_dot": 0.00033714,
        "meta_mean_motion_ddot": 0,
        "tle_line1": "1 66613U 25270AB  25353.46403685  .00033714  00000+0  80999-3 0  9997",
        "tle_line2": "2 66613  42.9985 153.8159 0001195 252.8559 107.2167 15.40728789  5386"
      },
      "geometry": {
        "type": "Point",
        "coordinates": [
          21.839490992545247,
          -37.2277646819842
        ]
      }
    },
    {
      "type": "Feature",
      "properties": {
        "norad_id": 66614,
        "name": "STARLINK-36040",
        "group": "last-30-days",
        "lat": -4.061499682210211,
        "lon": 142.57177734526678,
        "alt_km": 444.03476101442357,
        "timestamp": "2025-12-20T14:38:00.687546+00:00",
        "meta_object_name": "STARLINK-36040",
        "meta_object_id": "2025-270AC",
        "meta_epoch": "2025-12-20T06:00:02.999808",
        "meta_mean_motion": 15.40685504,
        "meta_eccentricity": 0.00019787,
        "meta_inclination": 43,
        "meta_ra_of_asc_node": 149.0151,
        "meta_arg_of_pericenter": 274.0388,
        "meta_mean_anomaly": 242.6405,
        "meta_ephemeris_type": 0,
        "meta_classification_type": "U",
        "meta_norad_cat_id": 66614,
        "meta_element_set_no": 999,
        "meta_rev_at_epoch": 544,
        "meta_bstar": 0.00056804819,
        "meta_mean_motion_dot": 0.00023487,
        "meta_mean_motion_ddot": 0,
        "tle_line1": "1 66614U 25270AC  25354.25003472  .00023487  00000+0  56805-3 0  9991",
        "tle_line2": "2 66614  43.0000 149.0151 0001978 274.0388 242.6405 15.40685504  5444"
      },
      "geometry": {
        "type": "Point",
        "coordinates": [
          142.57177734526678,
          -4.061499682210211
        ]
      }
    },
    {
      "type": "Feature",
      "properties": {
        "norad_id": 66615,
        "name": "STARLINK-35988",
        "group": "last-30-days",
        "lat": -42.21632741160839,
        "lon": 70.30634699738789,
        "alt_km": 446.2170782926505,
        "timestamp": "2025-12-20T14:38:00.687556+00:00",
        "meta_object_name": "STARLINK-35988",
        "meta_object_id": "2025-270AD",
        "meta_epoch": "2025-12-19T18:45:18.192384",
        "meta_mean_motion": 15.40740472,
        "meta_eccentricity": 0.00013795,
        "meta_inclination": 42.9991,
        "meta_ra_of_asc_node": 151.897,
        "meta_arg_of_pericenter": 259.7839,
        "meta_mean_anomaly": 100.2862,
        "meta_ephemeris_type": 0,
        "meta_classification_type": "U",
        "meta_norad_cat_id": 66615,
        "meta_element_set_no": 999,
        "meta_rev_at_epoch": 527,
        "meta_bstar": 0.00069381075,
        "meta_mean_motion_dot": 0.00028827,
        "meta_mean_motion_ddot": 0,
        "tle_line1": "1 66615U 25270AD  25353.78146056  .00028827  00000+0  69381-3 0  9991",
        "tle_line2": "2 66615  42.9991 151.8970 0001379 259.7839 100.2862 15.40740472  5271"
      },
      "geometry": {
        "type": "Point",
        "coordinates": [
          70.30634699738789,
          -42.21632741160839
        ]
      }
    }
  ]
}